BEIDOU-2 IGSO-1 (C06)   
1 36828U 10036A   23343.41577243 -.00000009  00000+0  00000+0 0  9993
2 36828  54.2380 171.2959 0038051 190.5860 333.9264  1.00282874 48971
BEIDOU-2 G4 (C04)       
1 37210U 10057A   23343.61908194 -.00000083  00000+0  00000+0 0  9999
2 37210   1.3949  64.7295 0007807 183.7779 212.3957  1.00270439 48061
BEIDOU-2 IGSO-2 (C07)   
1 37256U 10068A   23343.62202676 -.00000209  00000+0  00000+0 0  9994
2 37256  49.2357 283.1429 0029382 214.1233 270.4992  1.00252769 47561
BEIDOU-2 IGSO-3 (C08)   
1 37384U 11013A   23343.63243964 -.00000190  00000+0  00000+0 0  9992
2 37384  61.0738  48.9620 0027476 183.6238 178.8627  1.00257487 46449
BEIDOU-2 IGSO-4 (C09)   
1 37763U 11038A   23343.50779922  .00000117  00000+0  00000+0 0  9992
2 37763  54.5107 173.8543 0112612 226.9776 312.2894  1.00255328 45412
BEIDOU-2 IGSO-5 (C10)   
1 37948U 11073A   23340.28438340 -.00000145  00000+0  00000+0 0  9996
2 37948  49.3686 282.8548 0092636 221.2200 124.8985  1.00252512 43867
BEIDOU-2 G5 (C05)       
1 38091U 12008A   23343.78771205  .00000087  00000+0  00000+0 0  9997
2 38091   1.9412  69.8444 0008438 204.6089 146.0816  1.00270362 43247
BEIDOU-2 M3 (C11)       
1 38250U 12018A   23343.31346151 -.00000062  00000+0  00000+0 0  9996
2 38250  56.4589 335.6877 0025364 262.9965  96.7322  1.86231266 78790
BEIDOU-2 M4 (C12)       
1 38251U 12018B   23343.24449330 -.00000062  00000+0  00000+0 0  9992
2 38251  56.3684 334.9758 0016324 266.1280  93.7019  1.86232013 78799
BEIDOU-2 M6 (C14)       
1 38775U 12050B   23343.49107706 -.00000013  00000+0  00000+0 0  9990
2 38775  55.7652  93.5460 0010991 332.3578  27.5636  1.86231051 76515
BEIDOU-2 G6 (C02)       
1 38953U 12059A   23343.57785256 -.00000146  00000+0  00000+0 0  9995
2 38953   2.0725  81.6008 0007982 290.2359 358.1814  1.00275052 40674
BEIDOU-3S IGSO-1S (C31) 
1 40549U 15019A   23343.25316539 -.00000176  00000+0  00000+0 0  9990
2 40549  50.9299 306.4434 0036067 195.8798 120.3287  1.00291451 31832
BEIDOU-3S M2S (C57)     
1 40748U 15037A   23341.83551128 -.00000066  00000+0  00000+0 0  9996
2 40748  55.6071 333.5636 0012751 257.2815 102.5927  1.86233179 56944
BEIDOU-3S M1S (C58)     
1 40749U 15037B   23343.17962445 -.00000064  00000+0  00000+0 0  9992
2 40749  55.6093 333.5046 0006572 309.5766  50.3802  1.86232985 56973
BEIDOU-3S IGSO-2S (C56) 
1 40938U 15053A   23343.24689226 -.00000145  00000+0  00000+0 0  9991
2 40938  50.6609 269.6349 0046061 193.7705 158.4126  1.00261213 30118
BEIDOU-2 IGSO-6 (C13)   
1 41434U 16021A   23343.14350230 -.00000167  00000+0  00000+0 0  9992
2 41434  58.8903  47.2916 0050042 222.8329 314.6253  1.00264314 28240
BEIDOU-2 G7 (C03)       
1 41586U 16037A   23343.58316095 -.00000324  00000+0  00000+0 0  9991
2 41586   1.4529  66.1268 0009184 314.5121  17.9371  1.00269311 27555
BEIDOU-3 M1 (C19)       
1 43001U 17069A   23343.79425833 -.00000013  00000+0  00000+0 0  9990
2 43001  55.9164  93.6080 0008553 289.7835  70.1037  1.86231384 41468
BEIDOU-3 M2 (C20)       
1 43002U 17069B   23343.19421100 -.00000012  00000+0  00000+0 0  9997
2 43002  55.9152  93.6635 0005969 316.8089  43.1246  1.86231064 41448
BEIDOU-3 M7 (C27)       
1 43107U 18003A   23343.48155343 -.00000065  00000+0  00000+0 0  9995
2 43107  55.0630 334.1823 0002821  48.6005 311.4390  1.86232429 40211
BEIDOU-3 M8 (C28)       
1 43108U 18003B   23340.19872019 -.00000071  00000+0  00000+0 0  9994
2 43108  55.0579 334.2815 0004977 264.4357  95.5254  1.86231007 40151
BEIDOU-3 M4 (C22)       
1 43207U 18018A   23343.32534023 -.00000012  00000+0  00000+0 0  9993
2 43207  55.8750  93.7192 0003373 356.6654   3.3123  1.86231328 39592
BEIDOU-3 M3 (C21)       
1 43208U 18018B   23343.39198006 -.00000012  00000+0  00000+0 0  9998
2 43208  55.8745  93.7214 0006029 301.4541  58.4669  1.86231438 39594
BEIDOU-3 M9 (C29)       
1 43245U 18029A   23343.07746603 -.00000065  00000+0  00000+0 0  9996
2 43245  54.9539 331.9220 0002037 275.9520  84.0377  1.86232713 38741
BEIDOU-3 M10 (C30)      
1 43246U 18029B   23343.00736521 -.00000065  00000+0  00000+0 0  9998
2 43246  54.9510 331.9525 0004245 341.5250  18.4726  1.86232824 38722
BEIDOU-2 IGSO-7 (C16)   
1 43539U 18057A   23343.44026954 -.00000009  00000+0  00000+0 0  9992
2 43539  55.1223 171.0151 0063779 228.9582 308.0651  1.00254298 19912
BEIDOU-3 M5 (C23)       
1 43581U 18062A   23343.22787968  .00000086  00000+0  00000+0 0  9994
2 43581  54.1572 213.6436 0002346 332.3053  27.7793  1.86228836 36486
BEIDOU-3 M6 (C24)       
1 43582U 18062B   23343.09462189  .00000084  00000+0  00000+0 0  9993
2 43582  54.1569 213.6378 0007047  31.7209 328.4179  1.86229935 36484
BEIDOU-3 M12 (C26)      
1 43602U 18067A   23341.95614761  .00000072  00000+0  00000+0 0  9996
2 43602  54.2459 212.3400 0008140  27.0063 333.1275  1.86231632 35946
BEIDOU-3 M11 (C25)      
1 43603U 18067B   23343.16389019  .00000088  00000+0  00000+0 0  9994
2 43603  54.2428 212.2645 0004909  22.3435 337.7751  1.86231577 35995
BEIDOU-3 M13 (C32)      
1 43622U 18072A   23343.12307553 -.00000013  00000+0  00000+0 0  9999
2 43622  55.8448  93.2626 0005437 281.2340  78.6857  1.86231178 35501
BEIDOU-3 M14 (C33)      
1 43623U 18072B   23343.52548085 -.00000014  00000+0  00000+0 0  9992
2 43623  55.8470  93.2419 0002719 311.9648  47.9922  1.86231165 35507
BEIDOU-3 M16 (C35)      
1 43647U 18078A   23343.15221967 -.00000065  00000+0  00000+0 0  9996
2 43647  54.8499 332.0336 0007025 359.2285   0.7833  1.86232316 35004
BEIDOU-3 M15 (C34)      
1 43648U 18078B   23343.28130518 -.00000065  00000+0  00000+0 0  9992
2 43648  54.8456 332.0326 0003955 358.2597   1.7516  1.86232207 35020
BEIDOU-3 G1 (C59)       
1 43683U 18085A   23343.80389830 -.00000248  00000+0  00000+0 0  9993
2 43683   1.7337 118.3815 0001329 359.4205  29.8635  1.00266440 18822
BEIDOU-3 M17 (C36)      
1 43706U 18093A   23342.89226980  .00000082  00000+0  00000+0 0  9997
2 43706  54.2400 213.5794 0007107 294.6751  65.3464  1.86228445 34383
BEIDOU-3 M18 (C37)      
1 43707U 18093B   23343.29608335  .00000087  00000+0  00000+0 0  9996
2 43707  54.2406 213.5574 0006735 331.4897  28.5711  1.86229958 34389
BEIDOU-3 IGSO-1 (C38)   
1 44204U 19023A   23343.58455331 -.00000225  00000+0  00000+0 0  9996
2 44204  57.3591  47.2310 0024369 202.6134 155.5871  1.00253891 17127
BEIDOU-2 G8 (C01)       
1 44231U 19027A   23343.73314877 -.00000217  00000+0  00000+0 0  9997
2 44231   1.4788  71.9077 0004448 171.3368 243.4895  1.00270505 16848
BEIDOU-3 IGSO-2 (C39)   
1 44337U 19035A   23342.43787042 -.00000018  00000+0  00000+0 0  9996
2 44337  55.1591 166.9534 0030711 199.2375 343.9618  1.00301222 16429
BEIDOU-3 M24 (C46)      
1 44542U 19061A   23342.83006230  .00000081  00000+0  00000+0 0  9999
2 44542  54.4676 213.8298 0008837   6.3278 353.7785  1.86231587 28636
BEIDOU-3 M23 (C45)      
1 44543U 19061B   23343.26499507  .00000087  00000+0  00000+0 0  9997
2 44543  54.4655 213.7845 0005688   3.2801 200.4342  1.86231971 28645
BEIDOU-3 IGSO-3 (C40)   
1 44709U 19073A   23342.26863342 -.00000205  00000+0  00000+0 0  9998
2 44709  56.3782 290.7534 0033805 189.9632 169.9263  1.00253052 15217
BEIDOU-3 M22 (C44)      
1 44793U 19078A   23343.21235324 -.00000066  00000+0  00000+0 0  9990
2 44793  54.6982 331.9869 0005874   4.2629 355.7548  1.86232126 27499
BEIDOU-3 M21 (C43)      
1 44794U 19078B   23343.34267327 -.00000066  00000+0  00000+0 0  9993
2 44794  54.6718 331.9625 0004103 350.1206   9.8837  1.86232596 27506
BEIDOU-3 M19 (C41)      
1 44864U 19090A   23343.59447390 -.00000013  00000+0  00000+0 0  9994
2 44864  55.7795  93.4289 0016853 272.5433  89.8003  1.86231653 27080
BEIDOU-3 M20 (C42)      
1 44865U 19090B   23343.45546792 -.00000013  00000+0  00000+0 0  9996
2 44865  55.7811  93.4665 0014265 285.7677  73.1513  1.86231633 27067
BEIDOU-3 G2 (C60)       
1 45344U 20017A   23343.57706935 -.00000112  00000+0  00000+0 0  9990
2 45344   2.1176  21.1543 0003164 230.9257 113.7494  1.00270826 14029
BEIDOU-3 G3 (C61)       
1 45807U 20040A   23343.58316095 -.00000324  00000+0  00000+0 0  9990
2 45807   0.5802   6.0255 0009050 305.6745  86.7512  1.00278445 12848
BEIDOU-3 G4             
1 56564U 23066A   23343.73619457 -.00000079  00000+0  00000+0 0  9995
2 56564   2.6023 288.4553 0004226 234.4945 340.3107  1.00273287  2179
